[{"OBJECT_NAME":"STARLINK-3291","OBJECT_ID":"2021-125V","EPOCH":"2026-03-09T16:57:13.404096","MEAN_MOTION":15.08837256,"ECCENTRICITY":0.00013431,"INCLINATION":53.2169,"RA_OF_ASC_NODE":249.0469,"ARG_OF_PERICENTER":88.267,"MEAN_ANOMALY":271.8476,"EPHEMERIS_TYPE":0,"CLASSIFICATION_TYPE":"U","NORAD_CAT_ID":50175,"ELEMENT_SET_NO":999,"REV_AT_EPOCH":23660,"BSTAR":1.9004859e-5,"MEAN_MOTION_DOT":1.5e-7,"MEAN_MOTION_DDOT":0},{"OBJECT_NAME":"USA 18","OBJECT_ID":"1986-014H","EPOCH":"2026-03-09T22:05:59.515872","MEAN_MOTION":13.90362984,"ECCENTRICITY":0.07661046,"INCLINATION":63.2943,"RA_OF_ASC_NODE":308.76,"ARG_OF_PERICENTER":110.5722,"MEAN_ANOMALY":257.9185,"EPHEMERIS_TYPE":0,"CLASSIFICATION_TYPE":"U","NORAD_CAT_ID":16631,"ELEMENT_SET_NO":999,"REV_AT_EPOCH":33054,"BSTAR":0.00071829243,"MEAN_MOTION_DOT":0.00012022,"MEAN_MOTION_DDOT":0}]
